BEIDOU-2 IGSO-1 (C06)   
1 36828U 10036A   24107.09773064 -.00000114  00000+0  00000+0 0  9992
2 36828  54.2443 170.1322 0040088 199.8970 333.3797  1.00245293 50264
BEIDOU-2 G4 (C04)       
1 37210U 10057A   24135.58249105 -.00000113  00000+0  00000+0 0  9999
2 37210   1.7668  68.3126 0003203 191.3544 342.9200  1.00272503 49636
BEIDOU-2 IGSO-2 (C07)   
1 37256U 10068A   24134.67149095 -.00000210  00000+0  00000+0 0  9995
2 37256  48.9441 281.2370 0034168 208.3332  91.3243  1.00261233 49127
BEIDOU-2 IGSO-3 (C08)   
1 37384U 11013A   24135.45748253 -.00000202  00000+0  00000+0 0  9997
2 37384  61.3063  47.4358 0025672 177.8523 280.4009  1.00267411 48009
BEIDOU-2 IGSO-4 (C09)   
1 37763U 11038A   24134.07410480 -.00000038  00000+0  00000+0 0  9997
2 37763  54.5527 172.4851 0124689 228.7387 312.5815  1.00266710 46975
BEIDOU-2 IGSO-5 (C10)   
1 37948U 11073A   24134.87341080 -.00000152  00000+0  00000+0 0  9995
2 37948  49.0753 280.9188 0096401 218.8268 140.2531  1.00259553 45467
BEIDOU-2 G5 (C05)       
1 38091U 12008A   24135.09216029  .00000055  00000+0  00000+0 0  9994
2 38091   1.9949  70.5825 0007906 267.5149 346.0591  1.00273093 44706
BEIDOU-2 M3 (C11)       
1 38250U 12018A   24135.10461120 -.00000083  00000+0  00000+0 0  9990
2 38250  56.3609 330.4743 0020587 265.1002  94.6778  1.86231404 81718
BEIDOU-2 M4 (C12)       
1 38251U 12018B   24133.96104546 -.00000086  00000+0  00000+0 0  9992
2 38251  56.2692 329.7866 0011528 269.6092  90.2695  1.86232107 81698
BEIDOU-2 M6 (C14)       
1 38775U 12050B   24135.28133059 -.00000002  00000+0  00000+0 0  9995
2 38775  55.8882  88.2956 0014675 334.6341  25.2623  1.86231209 79089
BEIDOU-2 G6 (C02)       
1 38953U 12059A   24135.03799274 -.00000178  00000+0  00000+0 0  9996
2 38953   2.4746  80.7090 0010548 312.1368 297.1276  1.00269873 42241
BEIDOU-3S IGSO-1S (C31) 
1 40549U 15019A   24134.24000111 -.00000164  00000+0  00000+0 0  9991
2 40549  50.6382 304.5980 0037311 191.1618 275.0923  1.00257298 33401
BEIDOU-3S M2S (C58)     
1 40748U 15037A   24134.16159991 -.00000085  00000+0  00000+0 0  9996
2 40748  55.5018 328.2226 0007778 255.2866 104.6359  1.86233177 59872
BEIDOU-3S M1S (C57)     
1 40749U 15037B   24134.96889508 -.00000083  00000+0  00000+0 0  9997
2 40749  55.5047 328.1821 0004585   3.2450 356.7680  1.86233089 59899
BEIDOU-3S IGSO-2S (C56) 
1 40938U 15053A   24134.74239953 -.00000153  00000+0  00000+0 0  9992
2 40938  50.4134 267.8039 0051567 188.4668 139.4247  1.00270511 31688
BEIDOU-2 IGSO-6 (C13)   
1 41434U 16021A   24135.48210403 -.00000177  00000+0  00000+0 0  9997
2 41434  59.1308  45.6883 0048108 224.3770 232.2571  1.00277762 29829
BEIDOU-2 G7 (C03)       
1 41586U 16037A   24135.30327132 -.00000356  00000+0  00000+0 0  9990
2 41586   1.8274  69.2332 0008602 326.2218  56.7974  1.00269293 29138
BEIDOU-3 M1 (C19)       
1 43001U 17069A   24135.04740687 -.00000002  00000+0  00000+0 0  9993
2 43001  56.0388  88.3949 0012053 305.6371  54.2186  1.86231591 44377
BEIDOU-3 M2 (C20)       
1 43002U 17069B   24134.98456440 -.00000002  00000+0  00000+0 0  9997
2 43002  56.0379  88.4334 0009964 325.2784  34.6242  1.86231097 44365
BEIDOU-3 M7 (C27)       
1 43107U 18003A   24134.19709158 -.00000087  00000+0  00000+0 0  9995
2 43107  54.9598 328.8276 0005134  69.1449 290.9196  1.86232545 43109
BEIDOU-3 M8 (C28)       
1 43108U 18003B   24134.13723309 -.00000087  00000+0  00000+0 0  9994
2 43108  54.9530 328.8155 0002368 266.8659  93.1163  1.86231011 43112
BEIDOU-3 M4 (C22)       
1 43207U 18018A   24135.11547880 -.00000002  00000+0  00000+0 0  9994
2 43207  55.9978  88.4830 0007390 346.4862  13.4620  1.86231504 42512
BEIDOU-3 M3 (C21)       
1 43208U 18018B   24135.18204988 -.00000001  00000+0  00000+0 0  9990
2 43208  55.9975  88.4851 0009881 316.4727  43.4175  1.86231447 42511
BEIDOU-3 M9 (C29)       
1 43245U 18029A   24134.86668567 -.00000083  00000+0  00000+0 0  9994
2 43245  54.8438 326.5150 0000634  65.9934 294.0208  1.86232845 41664
BEIDOU-3 M10 (C30)      
1 43246U 18029B   24135.33335552 -.00000081  00000+0  00000+0 0  9991
2 43246  54.8409 326.5275 0004349  20.4963 339.5295  1.86233027 41659
BEIDOU-2 IGSO-7 (C16)   
1 43539U 18057A   24135.01577285 -.00000089  00000+0  00000+0 0  9991
2 43539  55.1363 169.6658 0074852 233.3534 307.4046  1.00263679 21471
BEIDOU-3 M5 (C23)       
1 43581U 18062A   24133.94503888 -.00000012  00000+0  00000+0 0  9998
2 43581  54.1353 208.3346 0004125 273.7446  86.2733  1.86228820 39384
BEIDOU-3 M6 (C24)       
1 43582U 18062B   24135.42192003 -.00000020  00000+0  00000+0 0  9996
2 43582  54.1346 208.2739 0004152  11.9515 348.1201  1.86229619 39412
BEIDOU-3 M12 (C26)      
1 43602U 18067A   24135.35563261 -.00000019  00000+0  00000+0 0  9992
2 43602  54.2248 206.9545 0006750  21.5047 338.5868  1.86231792 38898
BEIDOU-3 M11 (C25)      
1 43603U 18067B   24133.87872070 -.00000010  00000+0  00000+0 0  9990
2 43603  54.2222 206.9700 0003631   7.3372 352.7347  1.86231629 38891
BEIDOU-3 M13 (C32)      
1 43622U 18072A   24134.91322366 -.00000004  00000+0  00000+0 0  9994
2 43622  55.9680  88.0224 0008524 304.4915  55.3955  1.86231545 38425
BEIDOU-3 M14 (C33)      
1 43623U 18072B   24135.31563304 -.00000002  00000+0  00000+0 0  9997
2 43623  55.9702  88.0020 0006520 326.3185  33.6088  1.86231529 38429
BEIDOU-3 M16 (C35)      
1 43647U 18078A   24132.25687977 -.00000090  00000+0  00000+0 0  9999
2 43647  54.7424 326.7074 0007782  22.4781 337.5616  1.86232287 37874
BEIDOU-3 M15 (C34)      
1 43648U 18078B   24135.07081406 -.00000083  00000+0  00000+0 0  9990
2 43648  54.7363 326.6131 0004872  36.2346 323.8064  1.86232375 37948
BEIDOU-3 G1 (C59)       
1 43683U 18085A   24135.54563498 -.00000279  00000+0  00000+0 0  9992
2 43683   2.1103 110.8625 0003706 343.2770 115.0720  1.00274768 20405
BEIDOU-3 M17 (C36)      
1 43706U 18093A   24134.68370687 -.00000018  00000+0  00000+0 0  9998
2 43706  54.2181 208.2454 0009163 279.4686  80.4912  1.86228486 37301
BEIDOU-3 M18 (C37)      
1 43707U 18093B   24135.08627218 -.00000019  00000+0  00000+0 0  9990
2 43707  54.2187 208.2234 0007149 307.6773  52.3203  1.86229941 37305
BEIDOU-3 IGSO-1 (C38)   
1 44204U 19023A   24135.55524970 -.00000233  00000+0  00000+0 0  9998
2 44204  57.5955  45.5751 0018851 212.9974 292.0154  1.00259788 18705
BEIDOU-2 G8 (C01)       
1 44231U 19027A   24135.57896601 -.00000249  00000+0  00000+0 0  9994
2 44231   1.8673  73.6941 0002591 173.5767 338.4359  1.00275613 18429
BEIDOU-3 IGSO-2 (C39)   
1 44337U 19035A   24135.27769219 -.00000088  00000+0  00000+0 0  9992
2 44337  55.1720 165.5646 0033081 209.3400  74.5222  1.00251942 18004
BEIDOU-3 M24 (C46)      
1 44542U 19061A   24134.61914002 -.00000017  00000+0  00000+0 0  9990
2 44542  54.4455 208.5273 0007266 349.1397  10.9079  1.86231255 31555
BEIDOU-3 M23 (C45)      
1 44543U 19061B   24134.31418368 -.00000015  00000+0  00000+0 0  9990
2 44543  54.4442 208.5064 0004570 329.5898  98.2163  1.86231698 31557
BEIDOU-3 IGSO-3 (C40)   
1 44709U 19073A   24133.83191213 -.00000195  00000+0  00000+0 0  9999
2 44709  56.1119 289.0970 0037725 180.2484 179.6671  1.00260285 16788
BEIDOU-3 M22 (C44)      
1 44793U 19078A   24135.53881920 -.00000082  00000+0  00000+0 0  9992
2 44793  54.5878 326.5301 0006763  30.9200 329.1284  1.86232273 30424
BEIDOU-3 M21 (C43)      
1 44794U 19078B   24135.13174492 -.00000083  00000+0  00000+0 0  9999
2 44794  54.5617 326.5210 0004603  29.1041 330.9294  1.86232753 30423
BEIDOU-3 M19 (C41)      
1 44864U 19090A   24135.48395819 -.00000001  00000+0  00000+0 0  9997
2 44864  55.9030  88.1759 0019146 284.7051 144.4407  1.86231848 30015
BEIDOU-3 M20 (C42)      
1 44865U 19090B   24135.44221547 -.00000001  00000+0  00000+0 0  9990
2 44865  55.9046  88.2105 0017192 297.1431 193.7595  1.86231788 29991
BEIDOU-3 G2 (C60)       
1 45344U 20017A   24135.03799274 -.00000145  00000+0  00000+0 0  9995
2 45344   2.2768  28.2933 0000516  13.3630 284.3185  1.00272370 15595
BEIDOU-3 G3 (C61)       
1 45807U 20040A   24135.57896719 -.00000356  00000+0  00000+0 0  9990
2 45807   0.7253  37.7695 0005406 290.9863 223.0093  1.00275706 14419
BEIDOU-3 G4             
1 56564U 23066A   24135.58264868 -.00000115  00000+0  00000+0 0  9991
2 56564   2.2060 288.2290 0004594 193.0512 121.3587  1.00272053  3732
BEIDOU-3 M25            
1 58654U 23207A   24135.21439962 -.00000004  00000+0  00000+0 0  9996
2 58654  55.0850  88.2250 0004404 299.7589  60.1657  1.86232370  2615
BEIDOU-3 M26            
1 58655U 23207B   24135.01329281 -.00000005  00000+0  00000+0 0  9998
2 58655  55.0868  88.2172 0004864 282.1424  77.7710  1.86231980  2599
